$$SOE
2460154.500000000, A.D. 2023-Jul-29 00:00:00.0000, -6.145966474003266E+07, 3.787366727981850E+08, 9.481606967714846E+06,
2460161.500000000, A.D. 2023-Aug-05 00:00:00.0000, -7.180949050912449E+07, 3.776949402263714E+08, 8.889454182928830E+06,
2460168.500000000, A.D. 2023-Aug-12 00:00:00.0000, -8.209802189519282E+07, 3.763308061600339E+08, 8.289712557945400E+06,
2460175.500000000, A.D. 2023-Aug-19 00:00:00.0000, -9.231686560186698E+07, 3.746471994484128E+08, 7.682933212179899E+06,
2460182.500000000, A.D. 2023-Aug-26 00:00:00.0000, -1.024577509296390E+08, 3.726471737150605E+08, 7.069664845582694E+06,
2460189.500000000, A.D. 2023-Sep-02 00:00:00.0000, -1.125125255531979E+08, 3.703339041972603E+08, 6.450453861089960E+06,
2460196.500000000, A.D. 2023-Sep-09 00:00:00.0000, -1.224731513628804E+08, 3.677106849101620E+08, 5.825844486351401E+06,
2460203.500000000, A.D. 2023-Sep-16 00:00:00.0000, -1.323317002137531E+08, 3.647809260609419E+08, 5.196378873441353E+06,
2460210.500000000, A.D. 2023-Sep-23 00:00:00.0000, -1.420803491773451E+08, 3.615481519840721E+08, 4.562597160819992E+06,
2460217.500000000, A.D. 2023-Sep-30 00:00:00.0000, -1.517113756472591E+08, 3.580160007750983E+08, 3.925037625059426E+06,
2460224.500000000, A.D. 2023-Oct-07 00:00:00.0000, -1.612171546620685E+08, 3.541882250699798E+08, 3.284237092745185E+06,
2460231.500000000, A.D. 2023-Oct-14 00:00:00.0000, -1.705901574109542E+08, 3.500686906425237E+08, 2.640731245666534E+06,
2460238.500000000, A.D. 2023-Oct-21 00:00:00.0000, -1.798229477037660E+08, 3.456613744060150E+08, 1.995054654018164E+06,
2460245.500000000, A.D. 2023-Oct-28 00:00:00.0000, -1.889081778430283E+08, 3.409703640724697E+08, 1.347740852220088E+06,
2460252.500000000, A.D. 2023-Nov-04 00:00:00.0000, -1.978385851557958E+08, 3.359998586936930E+08, 6.993225081090033E+05,
2460259.500000000, A.D. 2023-Nov-11 00:00:00.0000, -2.066069890144660E+08, 3.307541694761277E+08, 5.033161955064535E+04,
2460266.500000000, A.D. 2023-Nov-18 00:00:00.0000, -2.152062881336236E+08, 3.252377207973979E+08, -5.987002875216454E+05,
2460273.500000000, A.D. 2023-Nov-25 00:00:00.0000, -2.236294580754735E+08, 3.194550514390395E+08, -1.247241965033516E+06,
2460280.500000000, A.D. 2023-Dec-02 00:00:00.0000, -2.318695489408273E+08, 3.134108160142848E+08, -1.894762256481335E+06,
2460287.500000000, A.D. 2023-Dec-09 00:00:00.0000, -2.399196831753858E+08, 3.071097865207270E+08, -2.540729930443183E+06,
2460294.500000000, A.D. 2023-Dec-16 00:00:00.0000, -2.477730532155428E+08, 3.005568540207665E+08, -3.184613559316546E+06,
2460301.500000000, A.D. 2023-Dec-23 00:00:00.0000, -2.554229186403107E+08, 2.937570311319363E+08, -3.825881419560239E+06,
2460308.500000000, A.D. 2023-Dec-30 00:00:00.0000, -2.628626041859418E+08, 2.867154563761550E+08, -4.464001205954120E+06,
2460315.500000000, A.D. 2024-Jan-06 00:00:00.0000, -2.700855004093963E+08, 2.794373980309179E+08, -5.098439591986910E+06,
2460322.500000000, A.D. 2024-Jan-13 00:00:00.0000, -2.770850638346407E+08, 2.719282556746131E+08, -5.728662076173380E+06,
2460329.500000000, A.D. 2024-Jan-20 00:00:00.0000, -2.838548153678498E+08, 2.641935625030895E+08, -6.354132975046590E+06,
2460336.500000000, A.D. 2024-Jan-27 00:00:00.0000, -2.903883390261605E+08, 2.562389890670975E+08, -6.974315324897483E+06,
2460343.500000000, A.D. 2024-Feb-03 00:00:00.0000, -2.966792814216391E+08, 2.480703474812099E+08, -7.588670731959492E+06,
2460350.500000000, A.D. 2024-Feb-10 00:00:00.0000, -3.027213517351241E+08, 2.396935958090346E+08, -8.196659221286058E+06,
2460357.500000000, A.D. 2024-Feb-17 00:00:00.0000, -3.085083220550928E+08, 2.311148426267287E+08, -8.797739097312212E+06,
2460364.500000000, A.D. 2024-Feb-24 00:00:00.0000, -3.140340280619297E+08, 2.223403517729713E+08, -9.391366819158450E+06,
2460371.500000000, A.D. 2024-Mar-02 00:00:00.0000, -3.192923700473922E+08, 2.133765472460084E+08, -9.976996897076294E+06,
2460378.500000000, A.D. 2024-Mar-09 00:00:00.0000, -3.242773141524498E+08, 2.042300181784670E+08, -1.055408182909948E+07,
2460385.500000000, A.D. 2024-Mar-16 00:00:00.0000, -3.289828934522557E+08, 1.949075240814124E+08, -1.112207209938643E+07,
2460392.500000000, A.D. 2024-Mar-23 00:00:00.0000, -3.334032090174908E+08, 1.854160014609629E+08, -1.168041613965918E+07,
2460399.500000000, A.D. 2024-Mar-30 00:00:00.0000, -3.375324332217520E+08, 1.757625717751161E+08, -1.222856005235327E+07,
2460406.500000000, A.D. 2024-Apr-06 00:00:00.0000, -3.413648150687127E+08, 1.659545473594246E+08, -1.276594739655458E+07,
2460413.500000000, A.D. 2024-Apr-13 00:00:00.0000, -3.448946840122896E+08, 1.559994361511326E+08, -1.329201929560957E+07,
2460420.500000000, A.D. 2024-Apr-20 00:00:00.0000, -3.481164532479914E+08, 1.459049478737875E+08, -1.380621456156781E+07,
2460427.500000000, A.D. 2024-Apr-27 00:00:00.0000, -3.510246240271957E+08, 1.356790011062523E+08, -1.430796974567766E+07,
2460434.500000000, A.D. 2024-May-04 00:00:00.0000, -3.536137909424105E+08, 1.253297305194751E+08, -1.479671918321885E+07,
2460441.500000000, A.D. 2024-May-11 00:00:00.0000, -3.558786479803642E+08, 1.148654941626393E+08, -1.527189506523716E+07,
2460448.500000000, A.D. 2024-May-18 00:00:00.0000, -3.578139952979258E+08, 1.042948807998399E+08, -1.573292754536361E+07,
2460455.500000000, A.D. 2024-May-25 00:00:00.0000, -3.594147467356274E+08, 9.362671726648012E+07, -1.617924488723622E+07,
2460462.500000000, A.D. 2024-Jun-01 00:00:00.0000, -3.606759380505959E+08, 8.287007576098467E+07, -1.661027366560194E+07,
2460469.500000000, A.D. 2024-Jun-08 00:00:00.0000, -3.615927356659318E+08, 7.203428101810837E+07, -1.702543904865611E+07,
2460476.500000000, A.D. 2024-Jun-15 00:00:00.0000, -3.621604455816663E+08, 6.112891787361480E+07, -1.742416515695481E+07,
2460483.500000000, A.D. 2024-Jun-22 00:00:00.0000, -3.623745234986869E+08, 5.016384035442383E+07, -1.780587531416405E+07,
2460490.500000000, A.D. 2024-Jun-29 00:00:00.0000, -3.622305883276268E+08, 3.914918042638373E+07, -1.816999214811957E+07,
2460497.500000000, A.D. 2024-Jul-06 00:00:00.0000, -3.617244364916083E+08, 2.809535387820543E+07, -1.851593799167590E+07,
2460504.500000000, A.D. 2024-Jul-13 00:00:00.0000, -3.608520551226535E+08, 1.701306611035866E+07, -1.884313553555798E+07,
2460511.500000000, A.D. 2024-Jul-20 00:00:00.0000, -3.596096361841844E+08, 5.913318910692820E+06, -1.915100846141153E+07,
2460518.500000000, A.D. 2024-Jul-27 00:00:00.0000, -3.579935922287700E+08, -5.192582818710716E+06, -1.943898207916284E+07,
2460525.500000000, A.D. 2024-Aug-03 00:00:00.0000, -3.560005735732640E+08, -1.629302483834078E+07, -1.970648403093025E+07,
2460532.500000000, A.D. 2024-Aug-10 00:00:00.0000, -3.536274867750368E+08, -2.737607794206050E+07, -1.995294508296090E+07,
2460539.500000000, A.D. 2024-Aug-17 00:00:00.0000, -3.508715144037650E+08, -3.842949299619651E+07, -2.017780001316652E+07,
2460546.500000000, A.D. 2024-Aug-24 00:00:00.0000, -3.477301361160232E+08, -4.944069677902354E+07, -2.038048860314712E+07,
2460553.500000000, A.D. 2024-Aug-31 00:00:00.0000, -3.442011509490890E+08, -6.039678880831633E+07, -2.056045675537160E+07,
2460560.500000000, A.D. 2024-Sep-07 00:00:00.0000, -3.402827005012020E+08, -7.128453917152034E+07, -2.071715776529778E+07,
2460567.500000000, A.D. 2024-Sep-14 00:00:00.0000, -3.359732929447332E+08, -8.209038651396206E+07, -2.085005368277450E+07,
2460574.500000000, A.D. 2024-Sep-21 00:00:00.0000, -3.312718299252501E+08, -9.280043593296443E+07, -2.095861655104150E+07,
2460581.500000000, A.D. 2024-Sep-28 00:00:00.0000, -3.261776368475388E+08, -1.034004601780063E+08, -2.104232975020795E+07,
2460588.500000000, A.D. 2024-Oct-05 00:00:00.0000, -3.206904928796415E+08, -1.138759043396627E+08, -2.110068978864568E+07,
2460595.500000000, A.D. 2024-Oct-12 00:00:00.0000, -3.148106610154431E+08, -1.242118912425275E+08, -2.113320827073820E+07,
2460602.500000000, A.D. 2024-Oct-19 00:00:00.0000, -3.085389199030920E+08, -1.343932280235689E+08, -2.113941390629752E+07,
2460609.500000000, A.D. 2024-Oct-26 00:00:00.0000, -3.018765974092504E+08, -1.444044149258653E+08, -2.111885462825445E+07,
2460616.500000000, A.D. 2024-Nov-02 00:00:00.0000, -2.948256055815758E+08, -1.542296566980084E+08, -2.107109985859073E+07,
2460623.500000000, A.D. 2024-Nov-09 00:00:00.0000, -2.873884768079395E+08, -1.638528768288637E+08, -2.099574293270262E+07,
2460630.500000000, A.D. 2024-Nov-16 00:00:00.0000, -2.795684010104162E+08, -1.732577348754844E+08, -2.089240368580658E+07,
2460637.500000000, A.D. 2024-Nov-23 00:00:00.0000, -2.713692636568698E+08, -1.824276471990640E+08, -2.076073120934894E+07,
2460644.500000000, A.D. 2024-Nov-30 00:00:00.0000, -2.627956841749857E+08, -1.913458114207067E+08, -2.060040679779916E+07,
2460651.500000000, A.D. 2024-Dec-07 00:00:00.0000, -2.538530541025261E+08, -1.999952344454094E+08, -2.041114708552712E+07,
2460658.500000000, A.D. 2024-Dec-14 00:00:00.0000, -2.445475753713717E+08, -2.083587630940691E+08, -2.019270720353310E+07,
2460665.500000000, A.D. 2024-Dec-21 00:00:00.0000, -2.348863007048714E+08, -2.164191188387542E+08, -1.994488383497183E+07,
2460672.500000000, A.D. 2024-Dec-28 00:00:00.0000, -2.248771737698922E+08, -2.241589398505217E+08, -1.966751858058019E+07,
2460679.500000000, A.D. 2025-Jan-04 00:00:00.0000, -2.145290660529142E+08, -2.315608282033858E+08, -1.936050166230725E+07,
2460686.500000000, A.D. 2025-Jan-11 00:00:00.0000, -2.038518117949086E+08, -2.386074007596347E+08, -1.902377564201400E+07,
2460693.500000000, A.D. 2025-Jan-18 00:00:00.0000, -1.928562413596737E+08, -2.452813447972274E+08, -1.865733912094362E+07,
2460700.500000000, A.D. 2025-Jan-25 00:00:00.0000, -1.815542121952023E+08, -2.515654789459637E+08, -1.826125045144410E+07,
2460707.500000000, A.D. 2025-Feb-01 00:00:00.0000, -1.699586365520855E+08, -2.574428194981011E+08, -1.783563144735193E+07,
2460714.500000000, A.D. 2025-Feb-08 00:00:00.0000, -1.580835052125681E+08, -2.628966520410413E+08, -1.738067105907519E+07,
$$EOE